0 FENGYUN 1C DEB
1 30966U 99025BBG 13279.68911060  .00004760  00000-0  12698-2 0  4486
2 30966 099.1359 079.2603 0129220 306.7343 116.9198 14.44084885347309
0 FENGYUN 1C DEB
1 30966U 99025BBG 13282.26443523  .00009213  00000-0  24404-2 0  4495
2 30966 099.1362 082.0255 0129241 299.0909 185.4243 14.44118330347678
0 FENGYUN 1C DEB
1 30966U 99025BBG 13283.69523995  .00004806  00000-0  12656-2 0  4506
2 30966 099.1404 083.5567 0129891 294.9111 063.9106 14.44127939347883
0 FENGYUN 1C DEB
1 30966U 99025BBG 13286.28231632  .00006690  00000-0  17753-2 0  4526
2 30966 099.1358 086.3385 0129137 287.3467 193.8932 14.44165239348250
0 FENGYUN 1C DEB
1 30966U 99025BBG 13289.26161116  .00010085  00000-0  26638-2 0  4532
2 30966 099.1353 089.5401 0129370 278.2913 203.7200 14.44210576348684
0 FENGYUN 1C DEB
1 30966U 99025BBG 13291.27105560  .00010281  00000-0  27128-2 0  4541
2 30966 099.1338 091.6997 0129350 272.3283 211.3732 14.44249576348973
0 FENGYUN 1C DEB
1 30966U 99025BBG 13293.28021186  .00011591  00000-0  30575-2 0  4551
2 30966 099.1348 093.8568 0128567 266.7837 217.3204 14.44287376349266
